SILVERSAT               
1 66909U 98067XV  26046.53325702  .00147652  00000+0  14597-2 0  9997
2 66909  51.6274 177.7049 0003206 311.3033  48.7686 15.64875086 11716
ISS OBJECT XW           
1 66910U 98067XW  26046.55574182  .00115839  00000+0  12363-2 0  9990
2 66910  51.6260 177.8490 0002445 338.8203  21.2689 15.63058935 11715
ISS OBJECT XX           
1 66911U 98067XX  26046.36984408  .00198361  00000+0  18353-2 0  9992
2 66911  51.6240 178.1047 0004232 327.6325  32.4411 15.66351755 11685
ISS OBJECT XY           
1 66912U 98067XY  26046.37553713  .00098940  00000+0  12012-2 0  9993
2 66912  51.6280 179.6545 0000665 339.8908  20.2059 15.59794812 11665
ISS OBJECT XZ           
1 67683U 98067XZ  26046.49694616  .00046450  00000+0  81486-3 0  9991
2 67683  51.6308 181.9620 0010520 113.9141 246.2951 15.50022878  1345
GXIBA-1                 
1 67684U 98067YA  26046.55744524  .00077555  00000+0  13067-2 0  9992
2 67684  51.6308 181.6173 0012198 107.6826 252.5496 15.50917962  1351
CORAL                   
1 67685U 98067YB  26045.85149064  .00038466  00000+0  67417-3 0  9990
2 67685  51.6306 185.1527 0012495 107.6658 252.5696 15.50110637  1249
ISS OBJECT YC           
1 67686U 98067YC  26046.43101402  .00060238  00000+0  10415-2 0  9997
2 67686  51.6312 182.2730 0007776  83.5200 276.6675 15.50346970  1337
LEOPARD                 
1 67687U 98067YD  26046.49648733  .00049230  00000+0  86091-3 0  9990
2 67687  51.6312 181.9598 0007852  85.6674 274.5211 15.50112628  1265
ISS OBJECT YE           
1 67688U 98067YE  26046.43126074  .00055670  00000+0  96631-3 0  9990
2 67688  51.6313 182.2748 0007748  83.8751 276.3121 15.50270355  1259
CREW DRAGON 12          
1 67796U 26031A   26046.56961129  .00012237  00000+0  23255-3 0  9998
2 67796  51.6318 181.6982 0010992 101.7612 258.4610 15.48625638   324
